CCSDS_OMM_VERS = 2.0
CREATION_DATE  = 
ORIGINATOR     = 

OBJECT_NAME    = KUIPER-00221
OBJECT_ID      = 2025-301Q
CENTER_NAME    = EARTH
REF_FRAME      = TEME
TIME_SYSTEM    = UTC
MEAN_ELEMENT_THEORY = SGP/SGP4

EPOCH          = 2026-01-08T04:32:53.113632
MEAN_MOTION    = 15.36232510
ECCENTRICITY   = .0005005
INCLINATION    = 51.8719
RA_OF_ASC_NODE = 357.5210
ARG_OF_PERICENTER = 151.2333
MEAN_ANOMALY   = 208.8930

EPHEMERIS_TYPE = 0
CLASSIFICATION_TYPE = U
NORAD_CAT_ID   = 67147
ELEMENT_SET_NO = 999
REV_AT_EPOCH   = 443
BSTAR          = .48847E-3
MEAN_MOTION_DOT = .17175E-3
MEAN_MOTION_DDOT = 0

CCSDS_OMM_VERS = 2.0
CREATION_DATE  = 
ORIGINATOR     = 

OBJECT_NAME    = KUIPER-00232
OBJECT_ID      = 2025-301R
CENTER_NAME    = EARTH
REF_FRAME      = TEME
TIME_SYSTEM    = UTC
MEAN_ELEMENT_THEORY = SGP/SGP4

EPOCH          = 2026-01-08T04:12:16.387488
MEAN_MOTION    = 15.37094744
ECCENTRICITY   = .0002293
INCLINATION    = 51.8742
RA_OF_ASC_NODE = 357.4265
ARG_OF_PERICENTER = 82.8872
MEAN_ANOMALY   = 277.2376

EPHEMERIS_TYPE = 0
CLASSIFICATION_TYPE = U
NORAD_CAT_ID   = 67148
ELEMENT_SET_NO = 999
REV_AT_EPOCH   = 443
BSTAR          = .46673E-3
MEAN_MOTION_DOT = .16858E-3
MEAN_MOTION_DDOT = 0

CCSDS_OMM_VERS = 2.0
CREATION_DATE  = 
ORIGINATOR     = 

OBJECT_NAME    = KUIPER-00241
OBJECT_ID      = 2025-301S
CENTER_NAME    = EARTH
REF_FRAME      = TEME
TIME_SYSTEM    = UTC
MEAN_ELEMENT_THEORY = SGP/SGP4

EPOCH          = 2026-01-08T02:48:15.781248
MEAN_MOTION    = 15.36699650
ECCENTRICITY   = .0002852
INCLINATION    = 51.8740
RA_OF_ASC_NODE = 357.7830
ARG_OF_PERICENTER = 126.9976
MEAN_ANOMALY   = 233.1272

EPHEMERIS_TYPE = 0
CLASSIFICATION_TYPE = U
NORAD_CAT_ID   = 67149
ELEMENT_SET_NO = 999
REV_AT_EPOCH   = 475
BSTAR          = .43811E-3
MEAN_MOTION_DOT = .15595E-3
MEAN_MOTION_DDOT = 0

CCSDS_OMM_VERS = 2.0
CREATION_DATE  = 
ORIGINATOR     = 

OBJECT_NAME    = KUIPER-00245
OBJECT_ID      = 2025-301T
CENTER_NAME    = EARTH
REF_FRAME      = TEME
TIME_SYSTEM    = UTC
MEAN_ELEMENT_THEORY = SGP/SGP4

EPOCH          = 2026-01-08T04:00:01.998720
MEAN_MOTION    = 15.31053333
ECCENTRICITY   = .0007228
INCLINATION    = 51.8751
RA_OF_ASC_NODE = 357.7153
ARG_OF_PERICENTER = 165.2615
MEAN_ANOMALY   = 16.9484

EPHEMERIS_TYPE = 0
CLASSIFICATION_TYPE = U
NORAD_CAT_ID   = 67150
ELEMENT_SET_NO = 999
REV_AT_EPOCH   = 391
BSTAR          = -.32488E-1
MEAN_MOTION_DOT = -.908507E-2
MEAN_MOTION_DDOT = 0

CCSDS_OMM_VERS = 2.0
CREATION_DATE  = 
ORIGINATOR     = 

OBJECT_NAME    = KUIPER-00246
OBJECT_ID      = 2025-301U
CENTER_NAME    = EARTH
REF_FRAME      = TEME
TIME_SYSTEM    = UTC
MEAN_ELEMENT_THEORY = SGP/SGP4

EPOCH          = 2026-01-08T02:54:22.544928
MEAN_MOTION    = 15.36446959
ECCENTRICITY   = .0003988
INCLINATION    = 51.8736
RA_OF_ASC_NODE = 357.8130
ARG_OF_PERICENTER = 149.2011
MEAN_ANOMALY   = 210.9210

EPHEMERIS_TYPE = 0
CLASSIFICATION_TYPE = U
NORAD_CAT_ID   = 67151
ELEMENT_SET_NO = 999
REV_AT_EPOCH   = 444
BSTAR          = .7575E-3
MEAN_MOTION_DOT = .27068E-3
MEAN_MOTION_DDOT = 0

CCSDS_OMM_VERS = 2.0
CREATION_DATE  = 
ORIGINATOR     = 

OBJECT_NAME    = KUIPER-00247
OBJECT_ID      = 2025-301V
CENTER_NAME    = EARTH
REF_FRAME      = TEME
TIME_SYSTEM    = UTC
MEAN_ELEMENT_THEORY = SGP/SGP4

EPOCH          = 2026-01-08T03:36:31.485024
MEAN_MOTION    = 15.34425216
ECCENTRICITY   = .0011171
INCLINATION    = 51.8650
RA_OF_ASC_NODE = 357.9917
ARG_OF_PERICENTER = 193.0853
MEAN_ANOMALY   = 166.9844

EPHEMERIS_TYPE = 0
CLASSIFICATION_TYPE = U
NORAD_CAT_ID   = 67152
ELEMENT_SET_NO = 999
REV_AT_EPOCH   = 442
BSTAR          = .55864E-3
MEAN_MOTION_DOT = .18608E-3
MEAN_MOTION_DDOT = 0

CCSDS_OMM_VERS = 2.0
CREATION_DATE  = 
ORIGINATOR     = 

OBJECT_NAME    = KUIPER-00248
OBJECT_ID      = 2025-301W
CENTER_NAME    = EARTH
REF_FRAME      = TEME
TIME_SYSTEM    = UTC
MEAN_ELEMENT_THEORY = SGP/SGP4

EPOCH          = 2026-01-08T03:20:58.103232
MEAN_MOTION    = 15.35176499
ECCENTRICITY   = .0008407
INCLINATION    = 51.8689
RA_OF_ASC_NODE = 357.9284
ARG_OF_PERICENTER = 177.9165
MEAN_ANOMALY   = 182.1857

EPHEMERIS_TYPE = 0
CLASSIFICATION_TYPE = U
NORAD_CAT_ID   = 67153
ELEMENT_SET_NO = 999
REV_AT_EPOCH   = 459
BSTAR          = .52455E-3
MEAN_MOTION_DOT = .17862E-3
MEAN_MOTION_DDOT = 0

CCSDS_OMM_VERS = 2.0
CREATION_DATE  = 
ORIGINATOR     = 

OBJECT_NAME    = KUIPER-00249
OBJECT_ID      = 2025-301X
CENTER_NAME    = EARTH
REF_FRAME      = TEME
TIME_SYSTEM    = UTC
MEAN_ELEMENT_THEORY = SGP/SGP4

EPOCH          = 2026-01-08T03:17:10.892832
MEAN_MOTION    = 15.35532069
ECCENTRICITY   = .0008452
INCLINATION    = 51.8663
RA_OF_ASC_NODE = 357.9092
ARG_OF_PERICENTER = 176.7493
MEAN_ANOMALY   = 183.3549

EPHEMERIS_TYPE = 0
CLASSIFICATION_TYPE = U
NORAD_CAT_ID   = 67154
ELEMENT_SET_NO = 999
REV_AT_EPOCH   = 442
BSTAR          = .57185E-3
MEAN_MOTION_DOT = .19738E-3
MEAN_MOTION_DDOT = 0

CCSDS_OMM_VERS = 2.0
CREATION_DATE  = 
ORIGINATOR     = 

OBJECT_NAME    = KUIPER-00250
OBJECT_ID      = 2025-301Y
CENTER_NAME    = EARTH
REF_FRAME      = TEME
TIME_SYSTEM    = UTC
MEAN_ELEMENT_THEORY = SGP/SGP4

EPOCH          = 2026-01-08T04:39:52.876800
MEAN_MOTION    = 15.36052080
ECCENTRICITY   = .0006686
INCLINATION    = 51.8720
RA_OF_ASC_NODE = 357.5526
ARG_OF_PERICENTER = 166.1460
MEAN_ANOMALY   = 193.9710

EPHEMERIS_TYPE = 0
CLASSIFICATION_TYPE = U
NORAD_CAT_ID   = 67155
ELEMENT_SET_NO = 999
REV_AT_EPOCH   = 446
BSTAR          = .77339E-3
MEAN_MOTION_DOT = .27304E-3
MEAN_MOTION_DDOT = 0

CCSDS_OMM_VERS = 2.0
CREATION_DATE  = 
ORIGINATOR     = 

OBJECT_NAME    = KUIPER-00251
OBJECT_ID      = 2025-301Z
CENTER_NAME    = EARTH
REF_FRAME      = TEME
TIME_SYSTEM    = UTC
MEAN_ELEMENT_THEORY = SGP/SGP4

EPOCH          = 2026-01-08T03:20:09.553344
MEAN_MOTION    = 15.35141109
ECCENTRICITY   = .0008994
INCLINATION    = 51.8676
RA_OF_ASC_NODE = 357.9233
ARG_OF_PERICENTER = 174.6247
MEAN_ANOMALY   = 185.4836

EPHEMERIS_TYPE = 0
CLASSIFICATION_TYPE = U
NORAD_CAT_ID   = 67156
ELEMENT_SET_NO = 999
REV_AT_EPOCH   = 461
BSTAR          = .42875E-3
MEAN_MOTION_DOT = .14508E-3
MEAN_MOTION_DDOT = 0

CCSDS_OMM_VERS = 2.0
CREATION_DATE  = 
ORIGINATOR     = 

OBJECT_NAME    = KUIPER-00252
OBJECT_ID      = 2025-301AA
CENTER_NAME    = EARTH
REF_FRAME      = TEME
TIME_SYSTEM    = UTC
MEAN_ELEMENT_THEORY = SGP/SGP4

EPOCH          = 2026-01-08T03:30:14.966784
MEAN_MOTION    = 15.34810437
ECCENTRICITY   = .0009797
INCLINATION    = 51.8673
RA_OF_ASC_NODE = 357.9671
ARG_OF_PERICENTER = 187.1958
MEAN_ANOMALY   = 172.8888

EPHEMERIS_TYPE = 0
CLASSIFICATION_TYPE = U
NORAD_CAT_ID   = 67157
ELEMENT_SET_NO = 999
REV_AT_EPOCH   = 442
BSTAR          = .43133E-3
MEAN_MOTION_DOT = .14445E-3
MEAN_MOTION_DDOT = 0

CCSDS_OMM_VERS = 2.0
CREATION_DATE  = 
ORIGINATOR     = 

OBJECT_NAME    = KUIPER-00261
OBJECT_ID      = 2025-301AB
CENTER_NAME    = EARTH
REF_FRAME      = TEME
TIME_SYSTEM    = UTC
MEAN_ELEMENT_THEORY = SGP/SGP4

EPOCH          = 2026-01-08T04:38:40.572960
MEAN_MOTION    = 15.36028425
ECCENTRICITY   = .0006846
INCLINATION    = 51.8705
RA_OF_ASC_NODE = 357.5459
ARG_OF_PERICENTER = 164.6808
MEAN_ANOMALY   = 195.4387

EPHEMERIS_TYPE = 0
CLASSIFICATION_TYPE = U
NORAD_CAT_ID   = 67158
ELEMENT_SET_NO = 999
REV_AT_EPOCH   = 443
BSTAR          = .47641E-3
MEAN_MOTION_DOT = .16634E-3
MEAN_MOTION_DDOT = 0

